[{"OBJECT_NAME":"ICEYE-X2","OBJECT_ID":"2018-099AU","EPOCH":"2026-03-09T22:35:53.986848","MEAN_MOTION":15.16430937,"ECCENTRICITY":0.00088624,"INCLINATION":97.4491,"RA_OF_ASC_NODE":124.5633,"ARG_OF_PERICENTER":290.4063,"MEAN_ANOMALY":69.6218,"EPHEMERIS_TYPE":0,"CLASSIFICATION_TYPE":"U","NORAD_CAT_ID":43800,"ELEMENT_SET_NO":999,"REV_AT_EPOCH":39777,"BSTAR":0.00020585187,"MEAN_MOTION_DOT":3.939e-5,"MEAN_MOTION_DDOT":0},{"OBJECT_NAME":"INTERCOSMOS 25","OBJECT_ID":"1991-086A","EPOCH":"2026-03-09T17:46:01.385184","MEAN_MOTION":12.11998887,"ECCENTRICITY":0.14869778,"INCLINATION":82.6046,"RA_OF_ASC_NODE":309.9782,"ARG_OF_PERICENTER":116.8223,"MEAN_ANOMALY":259.2563,"EPHEMERIS_TYPE":0,"CLASSIFICATION_TYPE":"U","NORAD_CAT_ID":21819,"ELEMENT_SET_NO":999,"REV_AT_EPOCH":49669,"BSTAR":0.00031680054,"MEAN_MOTION_DOT":1.652e-5,"MEAN_MOTION_DDOT":0}]
